HST                     
1 20580U 90037B   23256.82285900  .00006132  00000+0  31873-3 0  9992
2 20580  28.4700  37.9107 0001927 259.9274 221.0883 15.14009451634908
